{
  "type": "FeatureCollection",
  "features": [
    {
      "type": "Feature",
      "properties": {
        "norad_id": 34070,
        "name": "COSMOS 2251 DEB",
        "group": "cosmos-2251-debris",
        "lat": -17.987749354647665,
        "lon": 103.0518859235286,
        "alt_km": 648.7687245317611,
        "timestamp": "2025-12-16T17:51:11.326007+00:00",
        "meta_object_name": "COSMOS 2251 DEB",
        "meta_object_id": "1993-036KH",
        "meta_epoch": "2025-12-15T18:06:31.053312",
        "meta_mean_motion": 14.77138978,
        "meta_eccentricity": 0.00184306,
        "meta_inclination": 74.0001,
        "meta_ra_of_asc_node": 110.3409,
        "meta_arg_of_pericenter": 226.7832,
        "meta_mean_anomaly": 255.4571,
        "meta_ephemeris_type": 0,
        "meta_classification_type": "U",
        "meta_norad_cat_id": 34070,
        "meta_element_set_no": 999,
        "meta_rev_at_epoch": 88655,
        "meta_bstar": 0.0017448162,
        "meta_mean_motion_dot": 0.00012363,
        "meta_mean_motion_ddot": 0,
        "tle_line1": "1 34070U 93036KH  25349.75452608  .00012363  00000+0  17448-2 0  9995",
        "tle_line2": "2 34070  74.0001 110.3409 0018430 226.7832 255.4571 14.77138978886558"
      },
      "geometry": {
        "type": "Point",
        "coordinates": [
          103.0518859235286,
          -17.987749354647665
        ]
      }
    },
    {
      "type": "Feature",
      "properties": {
        "norad_id": 34114,
        "name": "COSMOS 2251 DEB",
        "group": "cosmos-2251-debris",
        "lat": -65.3783624384827,
        "lon": -105.17313553584276,
        "alt_km": 736.7835502102644,
        "timestamp": "2025-12-16T17:51:11.326017+00:00",
        "meta_object_name": "COSMOS 2251 DEB",
        "meta_object_id": "1993-036KK",
        "meta_epoch": "2025-12-15T13:24:34.761888",
        "meta_mean_motion": 14.5642097,
        "meta_eccentricity": 0.0047531,
        "meta_inclination": 74.0598,
        "meta_ra_of_asc_node": 38.4897,
        "meta_arg_of_pericenter": 32.1099,
        "meta_mean_anomaly": 127.8769,
        "meta_ephemeris_type": 0,
        "meta_classification_type": "U",
        "meta_norad_cat_id": 34114,
        "meta_element_set_no": 999,
        "meta_rev_at_epoch": 87842,
        "meta_bstar": 0.00098701561,
        "meta_mean_motion_dot": 4.424e-05,
        "meta_mean_motion_ddot": 0,
        "tle_line1": "1 34114U 93036KK  25349.55873567  .00004424  00000+0  98702-3 0  9995",
        "tle_line2": "2 34114  74.0598  38.4897 0047531  32.1099 127.8769 14.56420970878428"
      },
      "geometry": {
        "type": "Point",
        "coordinates": [
          -105.17313553584276,
          -65.3783624384827
        ]
      }
    },
    {
      "type": "Feature",
      "properties": {
        "norad_id": 34115,
        "name": "COSMOS 2251 DEB",
        "group": "cosmos-2251-debris",
        "lat": -22.427056821426646,
        "lon": -132.75101732676225,
        "alt_km": 632.1890556604485,
        "timestamp": "2025-12-16T17:51:11.326028+00:00",
        "meta_object_name": "COSMOS 2251 DEB",
        "meta_object_id": "1993-036KL",
        "meta_epoch": "2025-12-15T17:36:58.686912",
        "meta_mean_motion": 14.79533708,
        "meta_eccentricity": 0.00286481,
        "meta_inclination": 74.0064,
        "meta_ra_of_asc_node": 236.0378,
        "meta_arg_of_pericenter": 58.6936,
        "meta_mean_anomaly": 301.7038,
        "meta_ephemeris_type": 0,
        "meta_classification_type": "U",
        "meta_norad_cat_id": 34115,
        "meta_element_set_no": 999,
        "meta_rev_at_epoch": 89456,
        "meta_bstar": 0.00057535675,
        "meta_mean_motion_dot": 4.302e-05,
        "meta_mean_motion_ddot": 0,
        "tle_line1": "1 34115U 93036KL  25349.73401258  .00004302  00000+0  57536-3 0  9995",
        "tle_line2": "2 34115  74.0064 236.0378 0028648  58.6936 301.7038 14.79533708894562"
      },
      "geometry": {
        "type": "Point",
        "coordinates": [
          -132.75101732676225,
          -22.427056821426646
        ]
      }
    },
    {
      "type": "Feature",
      "properties": {
        "norad_id": 34116,
        "name": "COSMOS 2251 DEB",
        "group": "cosmos-2251-debris",
        "lat": -72.04502356431068,
        "lon": 113.20079018779789,
        "alt_km": 715.2830960486281,
        "timestamp": "2025-12-16T17:51:11.326038+00:00",
        "meta_object_name": "COSMOS 2251 DEB",
        "meta_object_id": "1993-036KM",
        "meta_epoch": "2025-12-15T22:58:15.091968",
        "meta_mean_motion": 14.52995638,
        "meta_eccentricity": 0.00119388,
        "meta_inclination": 74.0398,
        "meta_ra_of_asc_node": 176.7075,
        "meta_arg_of_pericenter": 252.7785,
        "meta_mean_anomaly": 231.7867,
        "meta_ephemeris_type": 0,
        "meta_classification_type": "U",
        "meta_norad_cat_id": 34116,
        "meta_element_set_no": 999,
        "meta_rev_at_epoch": 88533,
        "meta_bstar": 0.00056414113,
        "meta_mean_motion_dot": 2.302e-05,
        "meta_mean_motion_ddot": 0,
        "tle_line1": "1 34116U 93036KM  25349.95711912  .00002302  00000+0  56414-3 0  9993",
        "tle_line2": "2 34116  74.0398 176.7075 0011938 252.7785 231.7867 14.52995638885332"
      },
      "geometry": {
        "type": "Point",
        "coordinates": [
          113.20079018779789,
          -72.04502356431068
        ]
      }
    },
    {
      "type": "Feature",
      "properties": {
        "norad_id": 34117,
        "name": "COSMOS 2251 DEB",
        "group": "cosmos-2251-debris",
        "lat": -72.02620257414011,
        "lon": -85.46912079888664,
        "alt_km": 791.9867048182177,
        "timestamp": "2025-12-16T17:51:11.326048+00:00",
        "meta_object_name": "COSMOS 2251 DEB",
        "meta_object_id": "1993-036KN",
        "meta_epoch": "2025-12-15T22:13:27.151680",
        "meta_mean_motion": 14.40025113,
        "meta_eccentricity": 0.00546589,
        "meta_inclination": 74.04,
        "meta_ra_of_asc_node": 337.9417,
        "meta_arg_of_pericenter": 53.3681,
        "meta_mean_anomaly": 307.2482,
        "meta_ephemeris_type": 0,
        "meta_classification_type": "U",
        "meta_norad_cat_id": 34117,
        "meta_element_set_no": 999,
        "meta_rev_at_epoch": 88169,
        "meta_bstar": 0.00054282202,
        "meta_mean_motion_dot": 1.715e-05,
        "meta_mean_motion_ddot": 0,
        "tle_line1": "1 34117U 93036KN  25349.92600870  .00001715  00000+0  54282-3 0  9999",
        "tle_line2": "2 34117  74.0400 337.9417 0054658  53.3681 307.2482 14.40025113881690"
      },
      "geometry": {
        "type": "Point",
        "coordinates": [
          -85.46912079888664,
          -72.02620257414011
        ]
      }
    },
    {
      "type": "Feature",
      "properties": {
        "norad_id": 34118,
        "name": "COSMOS 2251 DEB",
        "group": "cosmos-2251-debris",
        "lat": 44.90534156448628,
        "lon": -102.12761773796261,
        "alt_km": 542.6409348339284,
        "timestamp": "2025-12-16T17:51:11.326058+00:00",
        "meta_object_name": "COSMOS 2251 DEB",
        "meta_object_id": "1993-036KP",
        "meta_epoch": "2025-12-15T19:25:26.940576",
        "meta_mean_motion": 14.94067708,
        "meta_eccentricity": 0.00599076,
        "meta_inclination": 73.9525,
        "meta_ra_of_asc_node": 243.0913,
        "meta_arg_of_pericenter": 72.6525,
        "meta_mean_anomaly": 350.481,
        "meta_ephemeris_type": 0,
        "meta_classification_type": "U",
        "meta_norad_cat_id": 34118,
        "meta_element_set_no": 999,
        "meta_rev_at_epoch": 89222,
        "meta_bstar": 0.0010308369,
        "meta_mean_motion_dot": 0.00011386,
        "meta_mean_motion_ddot": 0,
        "tle_line1": "1 34118U 93036KP  25349.80933959  .00011386  00000+0  10308-2 0  9999",
        "tle_line2": "2 34118  73.9525 243.0913 0059907  72.6525 350.4810 14.94067708892229"
      },
      "geometry": {
        "type": "Point",
        "coordinates": [
          -102.12761773796261,
          44.90534156448628
        ]
      }
    },
    {
      "type": "Feature",
      "properties": {
        "norad_id": 34120,
        "name": "COSMOS 2251 DEB",
        "group": "cosmos-2251-debris",
        "lat": 14.900368706530761,
        "lon": 24.90446440034813,
        "alt_km": 979.3819932077649,
        "timestamp": "2025-12-16T17:51:11.326068+00:00",
        "meta_object_name": "COSMOS 2251 DEB",
        "meta_object_id": "1993-036KR",
        "meta_epoch": "2025-12-15T02:22:18.827328",
        "meta_mean_motion": 13.9868644,
        "meta_eccentricity": 0.01820726,
        "meta_inclination": 73.9909,
        "meta_ra_of_asc_node": 212.1344,
        "meta_arg_of_pericenter": 39.2943,
        "meta_mean_anomaly": 123.3499,
        "meta_ephemeris_type": 0,
        "meta_classification_type": "U",
        "meta_norad_cat_id": 34120,
        "meta_element_set_no": 999,
        "meta_rev_at_epoch": 86013,
        "meta_bstar": 0.0003441415,
        "meta_mean_motion_dot": 5.46e-06,
        "meta_mean_motion_ddot": 0,
        "tle_line1": "1 34120U 93036KR  25349.09882902  .00000546  00000+0  34414-3 0  9995",
        "tle_line2": "2 34120  73.9909 212.1344 0182072  39.2943 123.3499 13.98686440860134"
      },
      "geometry": {
        "type": "Point",
        "coordinates": [
          24.90446440034813,
          14.900368706530761
        ]
      }
    }
  ]
}